     3.05           NAVIGATION DATA     G                   RINEX VERSION / TYPE
BNC 2.13.0          BKG Frankfurt       20220101 092432 UTC PGM / RUN BY / DATE
gfzrnx-2.00-8219    FILE PROCESSING     20240209 221852 UTC COMMENT             
Concatenated RINEX files (5)                                COMMENT             
                                                            END OF HEADER
G29 2021 12 31 08 00 00-4.611364565790e-04-4.888534022029e-12 0.000000000000e+00
     6.200000000000e+01 2.278125000000e+01 4.283749863948e-09-4.103073854410e-01
     9.965151548386e-07 1.753571443260e-03 1.993030309677e-07 5.153772428513e+03
     4.608000000000e+05 4.656612873077e-08-2.021425419591e+00 2.235174179077e-08
     9.821696844297e-01 3.846875000000e+02 2.304642885307e+00-8.349990667770e-09
     1.353627812603e-10 1.000000000000e+00 2.190000000000e+03 0.000000000000e+00
     2.000000000000e+00 0.000000000000e+00-1.024455000000e-08 6.200000000000e+01
     4.584600000000e+05 4.000000000000e+00                                      
G29 2021 12 31 10 00 00-4.611718468368e-04-4.888534022029e-12 0.000000000000e+00
     6.800000000000e+01 3.550000000000e+01 4.295536069176e-09 6.397320733287e-01
     1.819804310799e-06 1.751836389303e-03 3.539025783539e-08 5.153769197464e+03
     4.680000000000e+05 2.235174179077e-08-2.021485530895e+00 4.470348358154e-08
     9.821706587331e-01 3.881875000000e+02 2.304723727623e+00-8.358205295657e-09
     1.389343586023e-10 1.000000000000e+00 2.190000000000e+03 0.000000000000e+00
     2.000000000000e+00 0.000000000000e+00-1.024455000000e-08 6.800000000000e+01
     4.608300000000e+05 4.000000000000e+00                                      
G29 2021 12 31 12 00 00-4.612072370946e-04-4.888534022029e-12 0.000000000000e+00
     7.500000000000e+01 3.662500000000e+01 4.259105980288e-09 1.689416563804e+00
     1.884996891022e-06 1.752444542944e-03-2.868473529816e-07 5.153770967484e+03
     4.752000000000e+05-9.313225746155e-09-2.021545754844e+00 5.774199962616e-08
     9.821716081670e-01 3.959062500000e+02 2.305159121302e+00-8.365705608075e-09
     1.325055193867e-10 1.000000000000e+00 2.190000000000e+03 0.000000000000e+00
     2.000000000000e+00 0.000000000000e+00-1.024455000000e-08 7.500000000000e+01
     4.680600000000e+05 4.000000000000e+00                                      
G29 2021 12 31 14 00 00-4.612426273520e-04-4.888534022030e-12 0.000000000000e+00
     7.700000000000e+01 3.053125000000e+01 4.295893226910e-09 2.740016500140e+00
     1.631677150730e-06 1.752733485770e-03-4.284083843230e-07 5.153769378660e+03
     4.824000000000e+05-5.774199962620e-08-2.021605561860e+00-9.313225746150e-09
     9.821723601070e-01 4.000625000000e+02 2.304679550420e+00-8.348919194570e-09
     6.571702309210e-11 1.000000000000e+00 2.190000000000e+03 0.000000000000e+00
     2.000000000000e+00 0.000000000000e+00-1.024454832080e-08 7.700000000000e+01
     4.793280000000e+05 4.000000000000e+00                                      
G29 2021 12 31 16 00 00-4.612780176100e-04-4.888534022030e-12 0.000000000000e+00
     7.800000000000e+01 2.978125000000e+01 4.299821961990e-09-2.493219150960e+00
     1.553446054460e-06 1.752684940580e-03-2.272427082060e-07 5.153769397740e+03
     4.896000000000e+05-2.980232238770e-08-2.021665683400e+00-3.539025783540e-08
     9.821728443330e-01 3.955937500000e+02 2.304850338790e+00-8.337132989340e-09
     6.285976121850e-11 1.000000000000e+00 2.190000000000e+03 0.000000000000e+00
     2.000000000000e+00 0.000000000000e+00-1.024454832080e-08 7.800000000000e+01
     4.824180000000e+05 4.000000000000e+00                                      
G29 2021 12 31 18 00 00-4.613134078681e-04-4.888534022029e-12 0.000000000000e+00
     7.900000000000e+01 3.778125000000e+01 4.258391664820e-09-1.442684819191e+00
     1.931563019753e-06 1.752882613800e-03-1.937150955200e-07 5.153770521164e+03
     4.968000000000e+05 5.587935447693e-09-2.021725468478e+00-5.587935447693e-09
     9.821734470550e-01 3.945312500000e+02 2.304436913756e+00-8.296059849907e-09
     5.428797559780e-11 1.000000000000e+00 2.190000000000e+03 0.000000000000e+00
     2.000000000000e+00 0.000000000000e+00-1.024454832077e-08 7.900000000000e+01
     4.954200000000e+05 0.000000000000e+00                                      
G29 2021 12 31 20 00 00-4.613487981260e-04-4.888534022029e-12 0.000000000000e+00
     8.000000000000e+01 4.831250000000e+01 4.190531695323e-09-3.916621521979e-01
     2.421438694000e-06 1.753528253175e-03 1.806765794754e-07 5.153773645401e+03
     5.040000000000e+05 1.862645149231e-09-2.021785197960e+00 0.000000000000e+00
     9.821738405800e-01 3.860312500000e+02 2.303532297881e+00-8.294631218970e-09
     5.643092200298e-11 1.000000000000e+00 2.190000000000e+03 0.000000000000e+00
     2.000000000000e+00 0.000000000000e+00-1.024454832077e-08 8.000000000000e+01
     4.968000000000e+05 0.000000000000e+00                                      
G29 2021 12 31 22 00 00-4.613837227225e-04-4.888534022029e-12 0.000000000000e+00
     8.100000000000e+01 6.290625000000e+01 4.287678599024e-09 6.584980924030e-01
     3.071501851082e-06 1.751517178491e-03 1.154839992523e-07 5.153769857407e+03
     5.112000000000e+05-5.587935447693e-09-2.021844890869e+00 3.352761268616e-08
     9.821741360894e-01 3.865937500000e+02 2.303491179642e+00-8.317489313958e-09
     4.714482091388e-11 1.000000000000e+00 2.190000000000e+03 0.000000000000e+00
     2.000000000000e+00 0.000000000000e+00-1.024455000000e-08 8.100000000000e+01
     5.040000000000e+05 4.000000000000e+00                                      
G29 2022 01 01 00 00 00-4.614191129804e-04-4.888534022029e-12 0.000000000000e+00
     8.200000000000e+01 6.884375000000e+01 4.334823419938e-09 1.707832689447e+00
     3.501772880554e-06 1.752178184688e-03-4.768371582031e-07 5.153772726059e+03
     5.184000000000e+05-4.470348358154e-08-2.021905312312e+00-5.401670932770e-08
     9.821741799770e-01 3.959375000000e+02 2.304276314609e+00-8.407135905242e-09
     7.607459738377e-11 1.000000000000e+00 2.190000000000e+03 0.000000000000e+00
     2.000000000000e+00 0.000000000000e+00-1.024455000000e-08 8.200000000000e+01
     5.112000000000e+05 4.000000000000e+00                                      
G30 2021 12 31 00 00 00-5.032713524997e-04-2.728484105319e-12 0.000000000000e+00
     8.200000000000e+01 1.678125000000e+01 5.045567310988e-09-1.318868563415e+00
     7.115304470062e-07 5.381682305597e-03 9.892508387566e-06 5.153596944809e+03
     4.320000000000e+05 1.136213541031e-07 2.113859194766e+00-4.470348358154e-08
     9.359618223153e-01 1.730937500000e+02-2.750608155768e+00-8.099980253833e-09
    -4.618049503155e-10 1.000000000000e+00 2.190000000000e+03 0.000000000000e+00
     2.000000000000e+00 0.000000000000e+00 3.725290000000e-09 8.200000000000e+01
     4.283700000000e+05 4.000000000000e+00                                      
G30 2021 12 31 02 00 00-5.032913759351e-04-2.728484105319e-12 0.000000000000e+00
     8.500000000000e+01 5.375000000000e+00 5.022709216000e-09-2.683727824608e-01
     3.259629011154e-07 5.382806295529e-03 9.685754776001e-06 5.153600368500e+03
     4.392000000000e+05 6.146728992462e-08 2.113800752652e+00 1.098960638046e-07
     9.359576778684e-01 1.798437500000e+02-2.750873972371e+00-8.251415133132e-09
    -5.146642949766e-10 1.000000000000e+00 2.190000000000e+03 0.000000000000e+00
     2.000000000000e+00 0.000000000000e+00 3.725290000000e-09 8.500000000000e+01
     4.320900000000e+05 4.000000000000e+00                                      
G30 2021 12 31 04 00 00-5.033109337090e-04-2.728484105320e-12 0.000000000000e+00
     8.700000000000e+01-6.187500000000e+00 5.045924468720e-09 7.819263706000e-01
    -1.937150955200e-07 5.381121532990e-03 9.916722774510e-06 5.153597097400e+03
     4.464000000000e+05-8.568167686460e-08 2.113741956510e+00 1.750886440280e-07
     9.359540249620e-01 1.754687500000e+02-2.750942814370e+00-8.176412008950e-09
    -5.935961542340e-10 1.000000000000e+00 2.190000000000e+03 0.000000000000e+00
     2.000000000000e+00 0.000000000000e+00 3.725290298460e-09 8.700000000000e+01
     4.417620000000e+05 4.000000000000e+00                                      
G30 2021 12 31 06 00 00-5.033309571440e-04-2.728484105320e-12 0.000000000000e+00
     9.600000000000e+01-6.218750000000e+00 5.030923843890e-09 1.831992767540e+00
    -2.272427082060e-07 5.381484515960e-03 1.033768057820e-05 5.153598876950e+03
     4.536000000000e+05-1.098960638050e-07 2.113683764560e+00 0.000000000000e+00
     9.359491505190e-01 1.683125000000e+02-2.750778844660e+00-8.170697485200e-09
    -7.211014653420e-10 1.000000000000e+00 2.190000000000e+03 0.000000000000e+00
     2.000000000000e+00 0.000000000000e+00 3.725290298460e-09 9.600000000000e+01
     4.464180000000e+05 4.000000000000e+00                                      
G30 2021 12 31 08 00 00-5.033509805800e-04-2.728484105320e-12 0.000000000000e+00
     9.700000000000e+01 4.093750000000e+00 5.043067206850e-09 2.882451021720e+00
     1.434236764910e-07 5.382345058020e-03 1.047179102900e-05 5.153596128460e+03
     4.608000000000e+05-3.352761268620e-08 2.113625056190e+00-1.192092895510e-07
     9.359446461940e-01 1.634375000000e+02-2.751005317550e+00-8.040334912220e-09
    -6.835999032510e-10 1.000000000000e+00 2.190000000000e+03 0.000000000000e+00
     2.000000000000e+00 0.000000000000e+00 3.725290298460e-09 9.700000000000e+01
     4.536180000000e+05 4.000000000000e+00                                      
